{
"type": "FeatureCollection",
"name": "waterways_cabrera",
"crs": { "type": "name", "properties": { "name": "urn:ogc:def:crs:OGC:1.3:CRS84" } },
"features": [
{ "type": "Feature", "properties": { "name": null, "name:en": null, "waterway": "stream", "covered": null, "width": null, "depth": null, "layer": null, "blockage": null, "tunnel": null, "natural": null, "water": null, "source": null, "name:es": null, "osm_id": 1005702924, "osm_type": "ways_line", "MunNombre": "CABRERA", "MunAAdmini": null, "MunArea": 420.05644010600003, "MunCodigo": "25120", "SHAPE_Leng": 0.98850696376400005, "SHAPE_Area": 0.0341753114701 }, "geometry": { "type": "LineString", "coordinates": [ [ -74.455853155372438, 3.745194329378176 ], [ -74.455662755372046, 3.745269229378113 ], [ -74.455394455371547, 3.745325429378293 ], [ -74.455035055371113, 3.745255929379329 ], [ -74.454855355370825, 3.745271929379571 ], [ -74.454506655369897, 3.745504829378934 ], [ -74.454233155369266, 3.745630629378748 ], [ -74.453825455368516, 3.745716229379019 ], [ -74.453766355368387, 3.745748329378954 ], [ -74.453683255368105, 3.745842029378592 ], [ -74.453575955367924, 3.745860729378687 ], [ -74.453305055367537, 3.745844729379266 ], [ -74.453162955367162, 3.745938429379017 ], [ -74.452867855366634, 3.745991929379262 ], [ -74.452621055366009, 3.74612572937898 ], [ -74.452580855365895, 3.746173929378789 ], [ -74.452524555365528, 3.746337229378002 ], [ -74.452393155364931, 3.746580729376912 ], [ -74.452167855364294, 3.746752029376385 ], [ -74.452004155363639, 3.746990229375387 ], [ -74.451845955363325, 3.747043729375382 ], [ -74.451591155362934, 3.7470518293758 ], [ -74.451218355362101, 3.747215029375592 ], [ -74.45110835536191, 3.747225729375733 ], [ -74.450966155361556, 3.747314129375509 ], [ -74.450813255361254, 3.747362229375525 ], [ -74.450740855361005, 3.747437229375248 ], [ -74.450682455360607, 3.747617129374371 ] ] } },
{ "type": "Feature", "properties": { "name": "Río Pilar", "name:en": null, "waterway": "river", "covered": null, "width": null, "depth": null, "layer": null, "blockage": null, "tunnel": null, "natural": null, "water": null, "source": "landsat", "name:es": null, "osm_id": 94403668, "osm_type": "ways_line", "MunNombre": "CABRERA", "MunAAdmini": null, "MunArea": 420.05644010600003, "MunCodigo": "25120", "SHAPE_Leng": 0.98850696376400005, "SHAPE_Area": 0.0341753114701 }, "geometry": { "type": "LineString", "coordinates": [ [ -74.364856530806733, 4.030903161206353 ], [ -74.364947509961794, 4.030340508408105 ], [ -74.364599609966476, 4.029169808412068 ], [ -74.364595209968456, 4.028494308413767 ], [ -74.364534409970105, 4.028001708415178 ], [ -74.364241609973035, 4.027366508417636 ], [ -74.363986409974856, 4.027051008419181 ], [ -74.363679709977205, 4.026633708421134 ], [ -74.363558609979023, 4.026152208422699 ], [ -74.363668109980537, 4.025499408424007 ], [ -74.36357040998206, 4.025097608425298 ], [ -74.363087409986136, 4.024296108428739 ], [ -74.36300120998763, 4.023890608430008 ], [ -74.363236709991696, 4.022207408433517 ], [ -74.36340270999257, 4.021701008434291 ], [ -74.36375390999315, 4.021073208434816 ], [ -74.363838309993781, 4.020753908435363 ], [ -74.363757209994716, 4.020535408436152 ], [ -74.363325009996686, 4.020399408437772 ], [ -74.362851409998584, 4.020326008439364 ], [ -74.36269431, 4.020033308440563 ], [ -74.362586510001208, 4.019755808441579 ], [ -74.362552810002398, 4.019392008442586 ], [ -74.362821410002809, 4.018917208442975 ], [ -74.363063210002707, 4.018656508442909 ], [ -74.363205910003316, 4.018271108443447 ], [ -74.363271810003951, 4.017976708443989 ], [ -74.363031210005232, 4.017829508445073 ], [ -74.362669510006498, 4.017841508446117 ], [ -74.362586810007571, 4.017575308447028 ], [ -74.362701910008454, 4.017136908447781 ], [ -74.363017010007951, 4.016917708447393 ], [ -74.363238910008363, 4.016503008447771 ], [ -74.363242610009081, 4.016258308448371 ], [ -74.363040610010216, 4.016114508449331 ], [ -74.362731210011603, 4.016018908450488 ], [ -74.362195210014534, 4.01567890845293 ], [ -74.362069610016803, 4.015050108454876 ], [ -74.362400010016074, 4.014897608454276 ], [ -74.362453910017521, 4.014336408455517 ], [ -74.362411210019289, 4.013775308457049 ], [ -74.362089810022937, 4.012931208460111 ], [ -74.362083210025773, 4.011964608462551 ], [ -74.362141010027784, 4.011206708464273 ], [ -74.362347210030137, 4.010148808466305 ], [ -74.362586110031899, 4.009247508467849 ], [ -74.362976810034567, 4.007856908470165 ], [ -74.363551510034583, 4.007138008470257 ], [ -74.363596510036189, 4.006534808471631 ], [ -74.363393710037684, 4.006276008472878 ], [ -74.363415610039226, 4.005718508474208 ], [ -74.363646510039501, 4.005332708474486 ], [ -74.3636844100416, 4.004572308476276 ], [ -74.364005610041218, 4.004304208475992 ], [ -74.364294710040525, 4.004185908475429 ], [ -74.364776210041299, 4.003328508476143 ], [ -74.365425910039889, 4.003014408474997 ], [ -74.366075610038337, 4.002743208473746 ], [ -74.366890710036742, 4.00228100847248 ], [ -74.36693731003713, 4.002091608472817 ], [ -74.366778310038455, 4.001830908473941 ], [ -74.366860610041414, 4.000719408476476 ], [ -74.367143810043302, 3.999725608478119 ], [ -74.367373510043933, 3.999222408478693 ], [ -74.368091410043135, 3.998612108478087 ], [ -74.368771510043317, 3.997705608478334 ], [ -74.369123910043484, 3.997223308478493 ], [ -74.369497810043356, 3.996805208478427 ], [ -74.369555010044238, 3.9964287084792 ], [ -74.369494310046903, 3.995591908481472 ], [ -74.370128210046801, 3.994847208481453 ], [ -74.370415910046702, 3.99452180848141 ], [ -74.370559710048639, 3.993684808483073 ], [ -74.370454610050274, 3.99325550848446 ], [ -74.37051051005146, 3.992783508485476 ], [ -74.370238910054667, 3.992022608488185 ], [ -74.370106810057365, 3.991251108490505 ], [ -74.370382410058113, 3.990657108491175 ], [ -74.370668610058104, 3.990309408491192 ], [ -74.370500910060287, 3.98976900849304 ], [ -74.371069410058951, 3.989523608491968 ], [ -74.371359010059209, 3.989079808492216 ], [ -74.371895410057547, 3.988986408490856 ], [ -74.372791210053975, 3.989105508487897 ], [ -74.373062110053795, 3.988833308487774 ], [ -74.373084910054686, 3.98850460848853 ], [ -74.373182810055923, 3.987956408489606 ], [ -74.373720210054515, 3.987778508488457 ], [ -74.374027910054394, 3.987434908488401 ], [ -74.37409271005636, 3.986689108490075 ], [ -74.374208210057745, 3.986070008491279 ], [ -74.374463210058025, 3.985654308491561 ] ] } },
{ "type": "Feature", "properties": { "name": null, "name:en": null, "waterway": "stream", "covered": null, "width": null, "depth": null, "layer": null, "blockage": null, "tunnel": null, "natural": null, "water": null, "source": null, "name:es": null, "osm_id": 635830219, "osm_type": "ways_line", "MunNombre": "CABRERA", "MunAAdmini": null, "MunArea": 420.05644010600003, "MunCodigo": "25120", "SHAPE_Leng": 0.98850696376400005, "SHAPE_Area": 0.0341753114701 }, "geometry": { "type": "LineString", "coordinates": [ [ -74.482510255037127, 3.968542528107714 ], [ -74.482268855036281, 3.968831428106573 ], [ -74.482204455035728, 3.969109728105163 ], [ -74.48225275503529, 3.969409428103433 ], [ -74.482107955034365, 3.969837528101351 ], [ -74.481818255033147, 3.970297828099358 ], [ -74.481550055032443, 3.970479728098848 ], [ -74.481362255032124, 3.970511828099017 ], [ -74.481158455031235, 3.970854328097511 ], [ -74.480890255030232, 3.971202228096098 ], [ -74.480852655029807, 3.971426928094934 ], [ -74.48064345502911, 3.971662428094025 ], [ -74.48028935502829, 3.971823028093791 ], [ -74.480096255027817, 3.971935328093527 ], [ -74.479849555026888, 3.972261828092192 ], [ -74.479575955025851, 3.972641728090608 ], [ -74.479227255024981, 3.97284512809013 ], [ -74.478674655023696, 3.973123428089615 ], [ -74.478363555022739, 3.973417728088569 ], [ -74.478148955022149, 3.973572928088111 ], [ -74.478079255021228, 3.974049228085627 ], [ -74.478073855020611, 3.974418428083613 ], [ -74.477762755019342, 3.974900128081539 ], [ -74.477414055018585, 3.975039228081414 ], [ -74.477086855017944, 3.975124828081544 ], [ -74.476752855017068, 3.975352528080905 ] ] } },
{ "type": "Feature", "properties": { "name": null, "name:en": null, "waterway": "stream", "covered": null, "width": null, "depth": null, "layer": null, "blockage": null, "tunnel": null, "natural": null, "water": null, "source": null, "name:es": null, "osm_id": 634442015, "osm_type": "ways_line", "MunNombre": "CABRERA", "MunAAdmini": null, "MunArea": 420.05644010600003, "MunCodigo": "25120", "SHAPE_Leng": 0.98850696376400005, "SHAPE_Area": 0.0341753114701 }, "geometry": { "type": "LineString", "coordinates": [ [ -74.411944354976256, 3.941740628383576 ], [ -74.412105254975799, 3.942168828380936 ], [ -74.412067754975425, 3.94235072838001 ], [ -74.412030154974545, 3.942843128377379 ], [ -74.412099954974408, 3.942987628376461 ], [ -74.412083854974114, 3.94314812837561 ], [ -74.411893354973188, 3.9435241283739 ], [ -74.411611754972256, 3.94382922837274 ], [ -74.411308654971421, 3.944059328372039 ], [ -74.410742754969789, 3.944516828370566 ], [ -74.410737354969484, 3.944690828369621 ], [ -74.410702454969041, 3.944928928368383 ], [ -74.410662254968713, 3.94509222836756 ], [ -74.410479854967917, 3.945402628366191 ], [ -74.410308154966955, 3.945822728364204 ], [ -74.410074854966382, 3.945964528363855 ], [ -74.409870954965882, 3.946068828363656 ], [ -74.409093154963458, 3.94682212836095 ], [ -74.408985854962779, 3.947116428359534 ], [ -74.408948354962348, 3.947346628358344 ], [ -74.409023454961556, 3.947877728355295 ], [ -74.409023454961059, 3.948174728353671 ], [ -74.409366754961084, 3.948477128351387 ], [ -74.409398954960693, 3.948726028349966 ], [ -74.409401554960112, 3.949073828348052 ], [ -74.409318454958978, 3.949683928344864 ], [ -74.409321154958164, 3.950165628342217 ], [ -74.409232654957364, 3.95055622834024 ], [ -74.409248754956991, 3.950799728338875 ], [ -74.409291654956462, 3.951166328336789 ], [ -74.409388154956332, 3.951321528335764 ], [ -74.4094820549562, 3.951482128334712 ], [ -74.409677854955788, 3.951891528332113 ], [ -74.40973955495555, 3.952100228330857 ], [ -74.409640354955002, 3.952346428329687 ], [ -74.409594754954554, 3.952557828328613 ], [ -74.409551854954017, 3.952838728327151 ], [ -74.409557154953703, 3.953036728326059 ], [ -74.409562554953283, 3.953288328324671 ], [ -74.409718054953331, 3.953398028323787 ], [ -74.409919254953621, 3.953408728323359 ], [ -74.410002454953627, 3.95347562832284 ], [ -74.410039954953433, 3.953622728321966 ], [ -74.410045354952999, 3.953885028320518 ], [ -74.410112354952759, 3.954088328319283 ], [ -74.410021154952361, 3.9542435283186 ], [ -74.409873654951937, 3.954361328318223 ], [ -74.409777154951598, 3.954473628317785 ], [ -74.409723454951163, 3.954698428316652 ], [ -74.409656454950451, 3.955059628314795 ], [ -74.409616154950058, 3.955257728313783 ], [ -74.409530354949339, 3.95560282831205 ], [ -74.409565254949058, 3.955800928310899 ], [ -74.409632254948832, 3.956001528309676 ], [ -74.409661754948658, 3.956135328308891 ], [ -74.409884354948431, 3.956472528306638 ], [ -74.410061454948348, 3.956675828305197 ], [ -74.410243854947936, 3.957078628302658 ], [ -74.4103725549475, 3.957453228300372 ], [ -74.41031355494701, 3.95769402829916 ], [ -74.410356454946779, 3.957865228298143 ], [ -74.410485254946323, 3.958245228295823 ], [ -74.410656854946282, 3.958421828294544 ], [ -74.410807054946076, 3.958694728292772 ], [ -74.410914354946001, 3.958828528291845 ], [ -74.410962654945806, 3.958989128290876 ], [ -74.410866054945117, 3.959310228289293 ], [ -74.410930454944761, 3.959572428287741 ], [ -74.410989454944584, 3.959738328286724 ], [ -74.410941154944197, 3.959925628285787 ], [ -74.410860754943883, 3.960038028285314 ], [ -74.4107427549433, 3.96027882828421 ], [ -74.410721254942885, 3.960503628283018 ], [ -74.410866054942829, 3.960669528281846 ], [ -74.411005554942676, 3.960891628280373 ], [ -74.411163754942507, 3.961128228278789 ], [ -74.411507054942874, 3.961224528277633 ], [ -74.411850354942942, 3.961481428275596 ], [ -74.412161554942969, 3.961743628273591 ], [ -74.412343854943273, 3.961732928273316 ], [ -74.412671154943652, 3.961797228272367 ], [ -74.412971554944377, 3.961625928272756 ], [ -74.413556254945291, 3.961609928271773 ], [ -74.413974654945733, 3.961732928270337 ], [ -74.41405515494553, 3.961914928269194 ], [ -74.413990754945132, 3.96209682826831 ], [ -74.413963954944663, 3.962353728266951 ], [ -74.413929854943987, 3.962727928264964 ] ] } },
{ "type": "Feature", "properties": { "name": null, "name:en": null, "waterway": "stream", "covered": null, "width": null, "depth": null, "layer": null, "blockage": null, "tunnel": null, "natural": null, "water": null, "source": null, "name:es": null, "osm_id": 635830237, "osm_type": "ways_line", "MunNombre": "CABRERA", "MunAAdmini": null, "MunArea": 420.05644010600003, "MunCodigo": "25120", "SHAPE_Leng": 0.98850696376400005, "SHAPE_Area": 0.0341753114701 }, "geometry": { "type": "LineString", "coordinates": [ [ -74.513938955202036, 3.898406228434562 ], [ -74.513751255200745, 3.89901102843159 ], [ -74.513761955200053, 3.899433828429255 ], [ -74.513949755199761, 3.899781728427009 ], [ -74.514094555198838, 3.900456128423051 ], [ -74.514116055198443, 3.900707628421634 ], [ -74.513987255197591, 3.901098328419728 ], [ -74.513547355196565, 3.901312428419364 ], [ -74.513182555195996, 3.901333828419908 ], [ -74.512764155195299, 3.901365928420498 ], [ -74.512501355194786, 3.901440828420572 ], [ -74.512254555193934, 3.901724528419464 ], [ -74.51207755519313, 3.902051028418 ], [ -74.511868355192263, 3.902388128416537 ], [ -74.511669855191613, 3.902607628415698 ], [ -74.511364055191038, 3.902666428415934 ], [ -74.511128055190255, 3.902918028414987 ], [ -74.511128055189687, 3.903260528413112 ], [ -74.511063655188707, 3.903785028410356 ], [ -74.511047555188483, 3.903902728409739 ], [ -74.510886655187861, 3.904132928408775 ], [ -74.510720355187303, 3.904309528408112 ], [ -74.510468155186544, 3.904539628407314 ], [ -74.510398455185751, 3.904951728405182 ], [ -74.510323355185108, 3.905262128403619 ], [ -74.510140955184241, 3.905615428402017 ], [ -74.50995325518349, 3.90589372840084 ], [ -74.509674255182986, 3.905952528401023 ], [ -74.509170055182224, 3.905952528401945 ], [ -74.508815955181419, 3.906123828401654 ], [ -74.50847795518041, 3.906423528400629 ], [ -74.50842975517935, 3.907001528397554 ], [ -74.508456555178526, 3.907510028394719 ], [ -74.508268755177582, 3.907916728392835 ], [ -74.508177555176502, 3.908473328389954 ], [ -74.507963055174713, 3.909351028385536 ], [ -74.507984455174253, 3.909640028383917 ], [ -74.508225855173933, 3.910052128381218 ], [ -74.50853165517367, 3.910474928378342 ], [ -74.508504855173243, 3.910705128377133 ], [ -74.508317055172611, 3.910929828376243 ], [ -74.507952255171816, 3.911074328376117 ], [ -74.507667955171115, 3.911229628375788 ], [ -74.507458755170475, 3.911427628375087 ], [ -74.507324655169526, 3.911866428372929 ], [ -74.506959855168574, 3.912112628372245 ], [ -74.506519955167448, 3.912380228371582 ], [ -74.506165955166622, 3.912562228371232 ], [ -74.505908455165866, 3.912781628370501 ], [ -74.505817255165255, 3.913065328369115 ], [ -74.505929955165314, 3.913129528368558 ], [ -74.50609085516561, 3.913097428368439 ], [ -74.506321555165997, 3.913070628368164 ], [ -74.506525355166147, 3.913161628367295 ], [ -74.506761355165622, 3.913691428363959 ], [ -74.50691695516521, 3.914066128361628 ], [ -74.506815055164466, 3.914435328359787 ], [ -74.506654055163622, 3.914777928358208 ], [ -74.506224955162509, 3.915077628357348 ], [ -74.505962055161433, 3.915462928355717 ], [ -74.50576365516055, 3.915816128354143 ], [ -74.505677755160008, 3.916073028352895 ], [ -74.505736755159361, 3.916501228350444 ], [ -74.505688555158713, 3.916849128348622 ], [ -74.505339855157885, 3.917025728348294 ], [ -74.505076955157094, 3.917271928347426 ], [ -74.504851655156216, 3.917582328346136 ], [ -74.504658555155231, 3.918010428344146 ], [ -74.504406455153514, 3.918797128340298 ], [ -74.504234755152325, 3.919348428337591 ], [ -74.504154255151548, 3.919749828335537 ], [ -74.504004055150844, 3.920028128334288 ], [ -74.503762655150339, 3.920119128334231 ], [ -74.503483755149958, 3.920092328334889 ], [ -74.503253055149941, 3.919894328336393 ], [ -74.503070655150111, 3.919632028338164 ], [ -74.502839955150222, 3.91935912834008 ], [ -74.50256105514994, 3.919284228340999 ], [ -74.502282055149379, 3.91936442834107 ], [ -74.501997755148707, 3.91951432834077 ], [ -74.501783255148027, 3.919728428339988 ], [ -74.501708155147327, 3.920076228338219 ], [ -74.501670555146575, 3.920483028336062 ], [ -74.501579355145537, 3.921028928333236 ], [ -74.501439855144639, 3.921430328331291 ], [ -74.501257455144184, 3.921537328331038 ], [ -74.500930255143317, 3.921767428330375 ], [ -74.5005064551423, 3.921997628329888 ], [ -74.500012955141145, 3.922243728329442 ], [ -74.499347755139809, 3.922457828329486 ], [ -74.498805955138749, 3.922597028329711 ], [ -74.498317755137791, 3.922736128329842 ], [ -74.497834955136469, 3.923084028328821 ], [ -74.497491655135349, 3.923442628327481 ], [ -74.497261055134345, 3.923833228325767 ], [ -74.497282455133742, 3.924218628323612 ], [ -74.497330755133177, 3.924598628321443 ], [ -74.497261055132611, 3.924866128320105 ], [ -74.497078655131943, 3.925101628319148 ], [ -74.496590455130658, 3.925428128318254 ], [ -74.496306155129901, 3.925626128317686 ], [ -74.496166655129059, 3.92601142831583 ], [ -74.495962855128241, 3.926321828314501 ], [ -74.495329855125917, 3.927135328311204 ], [ -74.495104555124655, 3.927681228308624 ], [ -74.495024055124205, 3.927879228307687 ], [ -74.494541255122812, 3.92828062830637 ], [ -74.494315955122246, 3.928419828306017 ], [ -74.49381165512078, 3.928837228304651 ], [ -74.493371755119654, 3.929115528303931 ], [ -74.493007055119037, 3.929153028304393 ], [ -74.492642255119051, 3.928831828306818 ], [ -74.492331155119544, 3.928253828310554 ], [ -74.492095055119634, 3.927997028312395 ], [ -74.491853655119286, 3.927970228312981 ], [ -74.491649855118794, 3.92810402831262 ], [ -74.491424555117575, 3.928607128310274 ], [ -74.491161655116798, 3.928837228309494 ], [ -74.491011455116478, 3.928901428309418 ], [ -74.490555455115413, 3.929131528308992 ], [ -74.490319455114786, 3.929297528308509 ], [ -74.490174655113776, 3.929757728306255 ], [ -74.489911755112871, 3.930068128305034 ], [ -74.489600655112156, 3.930218028304781 ], [ -74.489310955111549, 3.930325028304723 ], [ -74.488972955110711, 3.930507028304347 ], [ -74.488409755109075, 3.930983328302765 ], [ -74.488093255108097, 3.9312830283017 ], [ -74.487916155107655, 3.931395428301409 ], [ -74.487572855106976, 3.931486328301542 ], [ -74.487031055106002, 3.931582728301998 ], [ -74.48658045510507, 3.931737928301973 ], [ -74.486258555104214, 3.93196262830133 ], [ -74.48591525510345, 3.932112528301136 ], [ -74.485351955102075, 3.932433628300408 ], [ -74.484676055100323, 3.932856428299324 ], [ -74.484236155099182, 3.933150728298515 ], [ -74.483984055098574, 3.933289928298215 ], [ -74.483705155097638, 3.933589628297079 ], [ -74.48359785509696, 3.933910728295521 ], [ -74.483748055096868, 3.934098028294221 ], [ -74.484000155096766, 3.934371028292264 ], [ -74.484026955096127, 3.934793728289895 ], [ -74.483919655094951, 3.935393128286811 ], [ -74.483678255093281, 3.936163828283027 ], [ -74.483415455092256, 3.936543828281427 ], [ -74.48324375509138, 3.936918428279688 ], [ -74.483410055091326, 3.937089628278446 ], [ -74.483571055091417, 3.937180628277654 ], [ -74.484622555093054, 3.937148928275906 ], [ -74.48627475509484, 3.937555628270657 ], [ -74.486768355095364, 3.937684028269052 ], [ -74.489182255097575, 3.938518928260067 ], [ -74.489171555096377, 3.939225328256217 ], [ -74.489246655095656, 3.939717728253383 ], [ -74.489096455094611, 3.940199328251019 ], [ -74.489268155093839, 3.940820128247302 ], [ -74.489353955093094, 3.941344628244272 ], [ -74.489278855091897, 3.94198682824089 ], [ -74.489064255090398, 3.942693328237407 ], [ -74.48860295508932, 3.942928728236964 ], [ -74.488120155088538, 3.94296082823767 ], [ -74.487755355087899, 3.943003628238102 ], [ -74.486639555084935, 3.943774328235919 ], [ -74.486897055084597, 3.944213128233043 ], [ -74.487176055083793, 3.944941028228542 ], [ -74.487583755082767, 3.945904328222519 ], [ -74.487648055082119, 3.946353828219938 ], [ -74.487304755078242, 3.948344728209657 ], [ -74.487154555076742, 3.949115328205709 ], [ -74.48706875507601, 3.949457828203991 ], [ -74.486661055074094, 3.950249928200391 ], [ -74.486403555072556, 3.950934928197109 ], [ -74.485395055069262, 3.951983828193204 ], [ -74.485094655068153, 3.952390528191526 ], [ -74.484815655067166, 3.952733028190158 ], [ -74.484107555064909, 3.953428728187638 ], [ -74.484010955063923, 3.953942528184999 ], [ -74.483667655062106, 3.954713128181404 ], [ -74.483485255061353, 3.95500212818015 ], [ -74.48312055505977, 3.955601528177536 ], [ -74.48280935505889, 3.955869128176635 ], [ -74.482584055058112, 3.956126028175639 ], [ -74.482369455057409, 3.956350728174798 ], [ -74.482208555056729, 3.956607628173688 ], [ -74.48230515505648, 3.95684312817222 ], [ -74.482433855056314, 3.957057128170811 ], [ -74.482305155055641, 3.957335428169523 ], [ -74.48238025505475, 3.957934828166099 ], [ -74.482530455054174, 3.958427228163124 ], [ -74.482659155053938, 3.958684028161481 ], [ -74.482605555053325, 3.958994428159879 ], [ -74.48254115505253, 3.959401228157768 ], [ -74.482508955051728, 3.959850728155362 ], [ -74.482584055051262, 3.960193228153347 ], [ -74.482691355050974, 3.960471528151626 ], [ -74.482820155050675, 3.960760528149804 ], [ -74.482712855049911, 3.961124428148007 ], [ -74.482487555048792, 3.961595328145838 ], [ -74.482369455047831, 3.962044828143592 ], [ -74.482348055047311, 3.96235522814193 ], [ -74.482487555047115, 3.962590728140383 ], [ -74.482573355046824, 3.962826228138934 ], [ -74.48260555504649, 3.963061628137587 ], [ -74.482487555045878, 3.963318528136395 ], [ -74.482487555045097, 3.963789528133812 ], [ -74.48257335504384, 3.964602928129196 ], [ -74.482787955043392, 3.96506312812628 ], [ -74.482873755042988, 3.965373528124421 ], [ -74.482895155042584, 3.965641128122915 ], [ -74.482905955042156, 3.965898028121487 ], [ -74.482948855041286, 3.9664653281183 ], [ -74.482938155040614, 3.966850628116209 ], [ -74.482820055039909, 3.967171728114665 ], [ -74.482584055039311, 3.967310828114334 ], [ -74.482444555038981, 3.967375028114236 ], [ -74.482401655038558, 3.967599828113083 ], [ -74.48250355503842, 3.967776428111927 ], [ -74.482621655038301, 3.967958328110712 ], [ -74.482626955037858, 3.968215228109297 ], [ -74.482648455037534, 3.968434628108055 ], [ -74.482510255037127, 3.968542528107714 ] ] } },
{ "type": "Feature", "properties": { "name": null, "name:en": null, "waterway": "stream", "covered": null, "width": null, "depth": null, "layer": null, "blockage": null, "tunnel": null, "natural": null, "water": null, "source": null, "name:es": null, "osm_id": 1005702925, "osm_type": "ways_line", "MunNombre": "CABRERA", "MunAAdmini": null, "MunArea": 420.05644010600003, "MunCodigo": "25120", "SHAPE_Leng": 0.98850696376400005, "SHAPE_Area": 0.0341753114701 }, "geometry": { "type": "LineString", "coordinates": [ [ -74.447272755380723, 3.732614729462469 ], [ -74.447258055380416, 3.732787429461556 ], [ -74.447278155380246, 3.73289852946091 ], [ -74.447239255380055, 3.732978829460545 ], [ -74.447237955379961, 3.73304032946021 ], [ -74.44725535537988, 3.733099229459858 ], [ -74.44723795537972, 3.733180829459442 ], [ -74.447241955379681, 3.733207629459288 ], [ -74.447304955379565, 3.733336129458473 ], [ -74.447342555379521, 3.733389629458113 ], [ -74.447349255379393, 3.733473929457638 ], [ -74.447370655379387, 3.733492629457501 ], [ -74.447448455379259, 3.733645229456525 ], [ -74.44758655537936, 3.733701429455969 ], [ -74.447637555379373, 3.733737529455675 ], [ -74.447700555379171, 3.733915529454587 ], [ -74.447759555379164, 3.733977129454148 ], [ -74.447798455378901, 3.734156429453097 ], [ -74.447939255378998, 3.734226029452461 ], [ -74.447960755379015, 3.734244729452319 ], [ -74.447956755378854, 3.734330429451856 ], [ -74.447921855378738, 3.734374629451683 ], [ -74.447954055378517, 3.734524429450806 ], [ -74.447916455378277, 3.734639529450247 ], [ -74.447876255378077, 3.734714529449908 ], [ -74.44784675537791, 3.734800129449495 ], [ -74.447842755377422, 3.735082529447964 ], [ -74.447813255377241, 3.735168129447549 ], [ -74.447805155377111, 3.735225729447247 ], [ -74.447900455376995, 3.735390329446177 ], [ -74.447924555376844, 3.735501429445526 ], [ -74.447911155376758, 3.735537529445355 ], [ -74.447864155376578, 3.735608429445053 ], [ -74.447754255376296, 3.735675329444889 ], [ -74.447718055376171, 3.735716829444727 ], [ -74.447701955376104, 3.735742329444619 ], [ -74.44767645537587, 3.735861429444015 ], [ -74.447500755375458, 3.735945729443875 ], [ -74.447417655375276, 3.735969829443894 ], [ -74.447180255374874, 3.7360112294441 ], [ -74.447068955374746, 3.735992529444404 ], [ -74.446969655374488, 3.736044729444302 ], [ -74.446865055374019, 3.736244129443403 ], [ -74.44687445537393, 3.73630032944308 ], [ -74.446830255373797, 3.736335129442969 ], [ -74.446845455373477, 3.736538329441836 ] ] } },
{ "type": "Feature", "properties": { "name": "Río Sumapaz", "name:en": null, "waterway": "river", "covered": null, "width": null, "depth": null, "layer": null, "blockage": null, "tunnel": null, "natural": null, "water": null, "source": null, "name:es": null, "osm_id": 979396217, "osm_type": "ways_line", "MunNombre": "CABRERA", "MunAAdmini": null, "MunArea": 420.05644010600003, "MunCodigo": "25120", "SHAPE_Leng": 0.98850696376400005, "SHAPE_Area": 0.0341753114701 }, "geometry": { "type": "LineString", "coordinates": [ [ -74.374463210058025, 3.985654308491561 ], [ -74.375192110056545, 3.985272508490352 ], [ -74.37546531005755, 3.984583808491262 ], [ -74.375405910060138, 3.983777508493457 ], [ -74.376098410058646, 3.983431408492263 ], [ -74.377077610057597, 3.982584108491472 ], [ -74.377928110056786, 3.981811708490878 ], [ -74.380148210053065, 3.980346408487949 ], [ -74.381678710048149, 3.980144908483907 ], [ -74.384366530933576, 3.980960703974563 ], [ -74.38596811645786, 3.981487777942244 ], [ -74.386797348650759, 3.98085891131083 ], [ -74.38769128146798, 3.980223847518085 ], [ -74.388443532615227, 3.979154775066808 ], [ -74.390516054882411, 3.978417528221797 ], [ -74.390941754883329, 3.978252328221927 ], [ -74.391260054884341, 3.977937428223067 ], [ -74.391338854885376, 3.977382328225969 ], [ -74.391550154886502, 3.976914528228142 ], [ -74.392203354888053, 3.97657282822882 ], [ -74.393044554889528, 3.976451728227946 ], [ -74.393704954890211, 3.976628128225771 ], [ -74.394190054891183, 3.976471428225746 ], [ -74.394648254892473, 3.976132728226764 ], [ -74.394809354893383, 3.975734228228652 ], [ -74.394653854894841, 3.974732228234426 ], [ -74.394691454896119, 3.973997728238384 ], [ -74.395285554897825, 3.973508928239977 ], [ -74.39590115489932, 3.973170028240707 ], [ -74.396613354902001, 3.972221028244606 ], [ -74.397248454903433, 3.971928428245048 ], [ -74.397829854904714, 3.971700128245238 ], [ -74.398571854907175, 3.970892528248303 ], [ -74.398938454909072, 3.97008502825206 ], [ -74.39889905490999, 3.969508128255294 ], [ -74.398391154910797, 3.968557628261433 ], [ -74.401395854918619, 3.966611328266603 ], [ -74.403781454922282, 3.966557328262536 ], [ -74.406441354927921, 3.965583728263009 ], [ -74.409444954936916, 3.96292372827209 ], [ -74.4108673549391, 3.962893328269657 ], [ -74.41136935493995, 3.962840628269029 ], [ -74.411763954939559, 3.963419528265135 ], [ -74.41226035494013, 3.963527428263638 ], [ -74.413539854943068, 3.962918128264635 ], [ -74.413929854943987, 3.962727928264964 ], [ -74.414307154944439, 3.962791428263927 ], [ -74.414699754944692, 3.962989028262127 ], [ -74.414987354944472, 3.963382128259446 ], [ -74.415392854944514, 3.963732428256785 ], [ -74.415853554944903, 3.963893028255063 ], [ -74.416410754945971, 3.963764528254749 ], [ -74.417215454947282, 3.963699828253632 ], [ -74.418041554947905, 3.964074228250069 ], [ -74.418513654948001, 3.964432628247244 ], [ -74.419393454948946, 3.964662628244375 ], [ -74.419999854949864, 3.964654528243309 ], [ -74.4204156549511, 3.964297228244508 ], [ -74.420843554952057, 3.964097228244821 ], [ -74.421298854953136, 3.963868728245241 ], [ -74.422218554954526, 3.963850828243658 ], [ -74.422961154956511, 3.963329928245153 ], [ -74.42367605495798, 3.96311442824503 ], [ -74.424323154959012, 3.963070928244082 ], [ -74.425152554960491, 3.962931128243333 ], [ -74.425880054962519, 3.962378428245033 ], [ -74.426533454963021, 3.962658628242303 ], [ -74.42738595496462, 3.962472228241764 ], [ -74.427806754965729, 3.962181028242593 ], [ -74.428173954967036, 3.961740028244336 ], [ -74.429346954970939, 3.960460528249204 ], [ -74.429897554972612, 3.959962328250925 ], [ -74.430069054973302, 3.959714428251971 ], [ -74.430068954974487, 3.958995528255912 ], [ -74.430417454976421, 3.958153528259886 ], [ -74.430637254977697, 3.957600628262516 ], [ -74.431186754978441, 3.957639928261298 ], [ -74.431504354978458, 3.95792182825917 ], [ -74.432001154978721, 3.958201928256727 ], [ -74.432476454979323, 3.958268028255499 ], [ -74.433854454981216, 3.958368128252426 ], [ -74.434776354982702, 3.958314628251038 ], [ -74.435666054983599, 3.958576828247973 ], [ -74.436010854983849, 3.958736528246471 ], [ -74.436108854983402, 3.959088928244357 ], [ -74.436648354983561, 3.95948322824121 ], [ -74.437587654984284, 3.959886728237283 ], [ -74.438436454984924, 3.960265428233656 ], [ -74.439093354986028, 3.960188028232879 ], [ -74.439882654987471, 3.960039128232251 ], [ -74.440586054988856, 3.959847428232018 ], [ -74.44175055499079, 3.959742828230459 ], [ -74.442805154992229, 3.959822828228092 ], [ -74.443609754992707, 3.960247628224296 ], [ -74.44386445499201, 3.960894428220284 ], [ -74.443840354990002, 3.962076228213853 ], [ -74.444041454989417, 3.962594528210645 ], [ -74.444414254989312, 3.962984428207825 ], [ -74.444750354989054, 3.963439628204718 ], [ -74.445279454989176, 3.963851928201492 ], [ -74.446230554990393, 3.963970328199103 ], [ -74.446995354991387, 3.964057128197227 ], [ -74.447974554991873, 3.96465122819218 ], [ -74.448975154992709, 3.965052828188153 ], [ -74.450075154994366, 3.965042328186199 ], [ -74.450708854994403, 3.965578128182102 ], [ -74.451505754994272, 3.966374028176283 ], [ -74.452774654994556, 3.967341128168662 ], [ -74.453440254995172, 3.967570128166192 ], [ -74.454105854995348, 3.968056028162313 ], [ -74.455115254996585, 3.968214428159598 ], [ -74.456392754997808, 3.968629728154983 ], [ -74.457477254999546, 3.968574028153308 ], [ -74.458268555000672, 3.968614928151636 ], [ -74.459145755001259, 3.969041228147696 ], [ -74.460191955001605, 3.969765228141815 ], [ -74.461088155002386, 3.970101828138331 ], [ -74.462198855003905, 3.970181528135863 ], [ -74.46429155500681, 3.970340928131161 ], [ -74.46582525500952, 3.970088128129745 ], [ -74.466715355011431, 3.969749828129973 ], [ -74.467486855012851, 3.969586828129457 ], [ -74.468600655014555, 3.969560528127564 ], [ -74.469795855015803, 3.969885328123598 ], [ -74.471398655017239, 3.970467028117478 ], [ -74.472456455018857, 3.970447128115655 ], [ -74.473106555019612, 3.970577028113753 ], [ -74.474072255019991, 3.971205428108541 ], [ -74.474994955020122, 3.971962328102707 ], [ -74.476086655019614, 3.973242228093694 ], [ -74.476116155018389, 3.973986928089559 ], [ -74.47671155501726, 3.97519812808183 ], [ -74.476752855017068, 3.975352528080905 ], [ -74.476855755016572, 3.975737328078608 ], [ -74.477681155016981, 3.976228328074409 ], [ -74.478275355016891, 3.976805828070158 ], [ -74.478697755016242, 3.977576028065159 ], [ -74.479575355016806, 3.978011628061168 ], [ -74.480682655017532, 3.978571228056074 ], [ -74.481413155017805, 3.97906152805205 ], [ -74.482079255017808, 3.979669528047499 ], [ -74.482377055017309, 3.980223928043913 ], [ -74.482578255016577, 3.980842428040154 ], [ -74.482753955016079, 3.981293828037359 ], [ -74.483251555016139, 3.981696928034238 ], [ -74.483945355016843, 3.981905328031826 ], [ -74.484777355017329, 3.982355228027838 ], [ -74.485136355017104, 3.982802228024731 ], [ -74.485264655016437, 3.983329628021601 ], [ -74.485327755016016, 3.983625328019868 ], [ -74.485086855014259, 3.984456228015752 ], [ -74.484956955012748, 3.985233928011723 ], [ -74.484949255011301, 3.98609982800699 ], [ -74.485289855010365, 3.986951828001694 ], [ -74.485930855010906, 3.987215227999079 ], [ -74.487201555012177, 3.987584127994732 ], [ -74.487821155011787, 3.988381627989225 ], [ -74.487775555010089, 3.989339727984055 ], [ -74.48838485500923, 3.990387227977194 ], [ -74.489332055009925, 3.990829927973035 ], [ -74.489785555006506, 3.993267927958834 ], [ -74.490110255005774, 3.993998927954232 ], [ -74.490534255005997, 3.994240627952128 ], [ -74.491196555006795, 3.994359027950268 ], [ -74.491773055006931, 3.994787727946863 ], [ -74.491984755006698, 3.995120127944655 ], [ -74.492250055005925, 3.995805727940408 ], [ -74.492688055004521, 3.997037827932847 ], [ -74.492750555003141, 3.997906127927972 ], [ -74.493133055002971, 3.998358327924791 ], [ -74.494258355001961, 3.999962427913933 ], [ -74.494584455002069, 4.000180627912139 ], [ -74.494998855002692, 4.000187327911349 ], [ -74.495370255003479, 4.000044227911451 ], [ -74.495961755004998, 3.999662927912463 ], [ -74.496306355006183, 3.999281527913923 ], [ -74.49672375500711, 3.999093527914189 ], [ -74.497194655007789, 3.999108927913245 ], [ -74.49763235500798, 3.999396427910867 ], [ -74.498967155006142, 4.001679027895907 ], [ -74.499336555004277, 4.003105627887402 ], [ -74.499978155002836, 4.004539627878361 ], [ -74.500626355000165, 4.00670852786528 ], [ -74.500894554998283, 4.008057427857389 ], [ -74.501698354996535, 4.009831227846186 ], [ -74.503940354996132, 4.012065727829822 ], [ -74.5055601549968, 4.013114327821107 ], [ -74.507035255000105, 4.01246722782196 ], [ -74.509317955004946, 4.01161362782247 ], [ -74.509805155005665, 4.011621327821533 ], [ -74.510077855005818, 4.011778727820173 ], [ -74.510519955006046, 4.012037327817945 ], [ -74.51128385500536, 4.013130727810547 ], [ -74.512105255005224, 4.013928527804667 ], [ -74.512915455006151, 4.014106427802208 ], [ -74.513918155007119, 4.014426627798617 ], [ -74.514620555007312, 4.014939527794522 ], [ -74.516058155006945, 4.016427127783727 ], [ -74.516597494784492, 4.017393849383364 ] ] } },
{ "type": "Feature", "properties": { "name": "Río Sumapaz", "name:en": null, "waterway": "river", "covered": null, "width": null, "depth": null, "layer": null, "blockage": null, "tunnel": null, "natural": null, "water": null, "source": null, "name:es": null, "osm_id": 979396220, "osm_type": "ways_line", "MunNombre": "CABRERA", "MunAAdmini": null, "MunArea": 420.05644010600003, "MunCodigo": "25120", "SHAPE_Leng": 0.98850696376400005, "SHAPE_Area": 0.0341753114701 }, "geometry": { "type": "MultiLineString", "coordinates": [ [ [ -74.519072155378424, 4.018520876240896 ], [ -74.519480355008611, 4.018490427766142 ], [ -74.520032955008844, 4.018856527763121 ], [ -74.520271955007416, 4.019910927756902 ], [ -74.520771655007067, 4.020570327752367 ], [ -74.521534855007545, 4.020967027748795 ], [ -74.521825961146661, 4.021581771154169 ] ], [ [ -74.522809256516098, 4.022002235605281 ], [ -74.523034155007991, 4.022033527740198 ], [ -74.523696155008466, 4.022336127737324 ], [ -74.523940522329809, 4.022485000585137 ] ] ] } },
{ "type": "Feature", "properties": { "name": "Río Sumapaz", "name:en": null, "waterway": "river", "covered": null, "width": null, "depth": null, "layer": null, "blockage": null, "tunnel": null, "natural": null, "water": null, "source": "SIMCI-ONUDC, con modificaciones por OCHA", "name:es": null, "osm_id": 1202565562, "osm_type": "ways_line", "MunNombre": "CABRERA", "MunAAdmini": null, "MunArea": 420.05644010600003, "MunCodigo": "25120", "SHAPE_Leng": 0.98850696376400005, "SHAPE_Area": 0.0341753114701 }, "geometry": { "type": "MultiLineString", "coordinates": [ [ [ -74.442437455377572, 3.730175229484593 ], [ -74.44144235537415, 3.731326729480122 ], [ -74.441394755373139, 3.731874829477218 ], [ -74.442137755372855, 3.732709129471309 ], [ -74.442436755372938, 3.732927929469571 ], [ -74.44259365537286, 3.73311392946827 ], [ -74.442627155372648, 3.733269229467363 ], [ -74.442726755372391, 3.733516629465831 ], [ -74.443181055372492, 3.733856629463148 ], [ -74.443380955372504, 3.734034629461812 ], [ -74.443578055372697, 3.73409352946113 ], [ -74.443657155372733, 3.734137729460744 ], [ -74.443836855373092, 3.734077529460747 ], [ -74.443968255373363, 3.734041329460707 ], [ -74.444084955373313, 3.734167129459804 ], [ -74.444093055373116, 3.734305029459038 ], [ -74.444287655372989, 3.734543329457384 ], [ -74.444393455372975, 3.734650229456607 ], [ -74.444557055373195, 3.734665029456227 ], [ -74.44469385537306, 3.734871029454857 ], [ -74.44486625537327, 3.734908129454339 ], [ -74.444998255373406, 3.734935329453949 ], [ -74.445214155373449, 3.735102629452641 ], [ -74.445448855373812, 3.735095929452251 ], [ -74.445690255373975, 3.735212329451178 ], [ -74.445743955373842, 3.735332729450421 ], [ -74.446026855373759, 3.735643229448211 ], [ -74.44611405537367, 3.735770429447356 ], [ -74.44621465537351, 3.735960429446137 ], [ -74.446368855373436, 3.736134429444907 ], [ -74.446481555373211, 3.736379329443366 ], [ -74.446570055373257, 3.736424829442958 ], [ -74.446845455373477, 3.736538329441836 ], [ -74.44695435537291, 3.736975429439251 ], [ -74.447544455372793, 3.737567829434944 ], [ -74.447640655372325, 3.737942229432724 ], [ -74.447882355371931, 3.738387229429855 ], [ -74.448033455371572, 3.738731729427699 ], [ -74.448207855371038, 3.739212429424757 ], [ -74.448337755370446, 3.739674229422001 ], [ -74.448422855370026, 3.740010029420016 ], [ -74.448570855369496, 3.740455529417312 ], [ -74.448802955369203, 3.74083952941479 ], [ -74.448754455368473, 3.741226529412769 ], [ -74.448940355368066, 3.741637529410187 ], [ -74.449231755368004, 3.741923229408098 ], [ -74.449361555367318, 3.742441429405034 ], [ -74.44953295536672, 3.742953029401929 ], [ -74.449766755366639, 3.743213129400082 ], [ -74.449810855365911, 3.743689229397403 ], [ -74.450062255365523, 3.744156729394391 ], [ -74.450048855364756, 3.744591329392047 ], [ -74.449901155363662, 3.745112629389465 ], [ -74.450077655363316, 3.745462629387237 ], [ -74.450211255362461, 3.746104929383487 ], [ -74.450442055362302, 3.74639752938147 ], [ -74.450556655361879, 3.746750429379333 ], [ -74.450536755361185, 3.747156829377151 ], [ -74.450682455360607, 3.747617129374371 ], [ -74.45065525535945, 3.748290429370745 ], [ -74.45085885535903, 3.748719929368031 ], [ -74.450950255358421, 3.749162429365448 ], [ -74.450779155357708, 3.749447029364207 ], [ -74.450667155356655, 3.749959029361618 ], [ -74.450636055356057, 3.750291829359854 ], [ -74.450256455355202, 3.750466629359594 ], [ -74.449978855354161, 3.750826329358138 ], [ -74.449482855352727, 3.751238129356792 ], [ -74.44926095535159, 3.751727829354521 ], [ -74.448862255350278, 3.752145629352968 ], [ -74.448544455349264, 3.752470329351777 ], [ -74.448184755348151, 3.752815229350547 ], [ -74.447949355347404, 3.753046329349716 ], [ -74.448049155346837, 3.753477429347183 ], [ -74.44788465534613, 3.753736429346065 ], [ -74.447507455345203, 3.75395682934555 ], [ -74.447213355344232, 3.754283229344304 ], [ -74.446937955343188, 3.754651329342798 ], [ -74.44681045534243, 3.754996729341146 ], [ -74.446830655341827, 3.755361829339111 ], [ -74.446569555341441, 3.755361129339593 ], [ -74.446499455340941, 3.755594129338453 ], [ -74.446169655339958, 3.755889229337439 ], [ -74.445838055339081, 3.756096329336914 ], [ -74.445697555338711, 3.756204729336579 ], [ -74.445633926108528, 3.75622723529004 ] ], [ [ -74.444674812706893, 3.756981388486179 ], [ -74.44464605533571, 3.757061429333817 ], [ -74.444379155334872, 3.75732732933285 ], [ -74.444393117905022, 3.757240253376406 ] ], [ [ -74.440351214677662, 3.758561193619019 ], [ -74.440273355326468, 3.758659529333061 ], [ -74.439986355325502, 3.758983029331819 ], [ -74.439601455324294, 3.759347129330531 ], [ -74.439462855323839, 3.759500529329947 ], [ -74.439485255323603, 3.75965372932907 ], [ -74.439516555323451, 3.759764329328409 ], [ -74.439638455323319, 3.759962329327109 ], [ -74.439336355322709, 3.76004242932722 ], [ -74.439182455322296, 3.760170229326804 ], [ -74.439055855321939, 3.760268529326497 ], [ -74.439108655321874, 3.760345929325976 ], [ -74.439059955321639, 3.760445729325522 ], [ -74.439253255321759, 3.76054112932465 ], [ -74.439269855321626, 3.760642429324066 ], [ -74.439217455321341, 3.760764829323494 ], [ -74.439157155321041, 3.76088812932293 ], [ -74.438936755320753, 3.760863129323466 ], [ -74.438863455320927, 3.760699929324494 ], [ -74.438729355320476, 3.760837529323986 ], [ -74.438577055320096, 3.760933229323742 ], [ -74.438505579419797, 3.760836010601144 ] ], [ [ -74.438361543054768, 3.761021370334271 ], [ -74.438426755319512, 3.761147329322846 ], [ -74.438669555319734, 3.761234229321929 ], [ -74.438733755319518, 3.761412529320839 ], [ -74.438505955318675, 3.761712829319614 ], [ -74.438392755318134, 3.761939529318583 ], [ -74.438520755317853, 3.76221392931685 ], [ -74.438413455317345, 3.762428029315875 ], [ -74.437995055317131, 3.762171129318041 ], [ -74.437871655317522, 3.761828529320139 ], [ -74.437731091218538, 3.76194595154946 ] ], [ [ -74.437616629308138, 3.762224957271428 ], [ -74.437667755316411, 3.76232632931779 ], [ -74.437559999962886, 3.762362993545271 ] ], [ [ -74.436843176153289, 3.76280361020613 ], [ -74.436718455313979, 3.762913429316317 ], [ -74.436700231510642, 3.762901893048768 ] ], [ [ -74.435937293971023, 3.763523758396344 ], [ -74.435933555311777, 3.763529329314385 ], [ -74.435923657166754, 3.763534380281726 ] ], [ [ -74.433471864281557, 3.764985416978384 ], [ -74.433440655305503, 3.765037529310696 ], [ -74.433395055304985, 3.76529712930936 ], [ -74.433400355304542, 3.765559729307918 ], [ -74.433309155304144, 3.765720029307208 ], [ -74.433338655303899, 3.765904729306145 ], [ -74.433365555303538, 3.766132229304854 ], [ -74.433311855303302, 3.766223229304456 ], [ -74.43344335530314, 3.766437329303048 ], [ -74.433588155303042, 3.766627329301746 ], [ -74.433639155302714, 3.766868229300337 ], [ -74.433767855302563, 3.767074329298977 ], [ -74.433960955302666, 3.767184029298027 ], [ -74.434156755302865, 3.767242929297346 ], [ -74.434215755302716, 3.76738202929648 ], [ -74.434137955302305, 3.767553329295685 ], [ -74.434105855301965, 3.767727329294795 ], [ -74.433958255301405, 3.767938729293909 ], [ -74.433867055300837, 3.768195729292673 ], [ -74.433923455300359, 3.768516829290818 ], [ -74.433910055300046, 3.768704229289817 ], [ -74.433840255299586, 3.768918329288774 ], [ -74.433781255299138, 3.769119029287788 ], [ -74.433834955298906, 3.769311729286636 ], [ -74.434058355298902, 3.769519529285097 ], [ -74.434111155298694, 3.76967842928413 ], [ -74.434309655298421, 3.770021029281898 ], [ -74.434574655298533, 3.770196329280456 ], [ -74.43430965529744, 3.770601829278726 ], [ -74.434199655297093, 3.770714229278312 ], [ -74.434081655296609, 3.77089352927755 ], [ -74.434052155296371, 3.771022029276901 ], [ -74.433969055296032, 3.771134429276439 ], [ -74.433776155295178, 3.771487729274863 ], [ -74.43364985529459, 3.771717829273838 ], [ -74.433663255294249, 3.771931929272641 ], [ -74.433777055294442, 3.771925029272472 ], [ -74.434014655295485, 3.771501029274353 ], [ -74.434175555295624, 3.771567929273698 ], [ -74.434030755294671, 3.772001529271595 ], [ -74.433990455294278, 3.772204929270556 ], [ -74.43392875529409, 3.772255829270388 ], [ -74.433869755293884, 3.772336129270057 ], [ -74.433853655293731, 3.772408329269694 ], [ -74.433762455293305, 3.77258762926888 ], [ -74.433683555292788, 3.772820829267753 ], [ -74.433580055292467, 3.772924929267372 ], [ -74.4335371552922, 3.77303462926685 ], [ -74.433424355291606, 3.773286629265679 ], [ -74.433322655291207, 3.773430729265077 ], [ -74.433368155290864, 3.773676929263654 ], [ -74.433275655290402, 3.773873429262747 ], [ -74.433156955290045, 3.773979829262382 ], [ -74.433121355289728, 3.774129929261626 ], [ -74.433121455289594, 3.774212229261177 ], [ -74.4330409552894, 3.774249729261117 ], [ -74.43297395528927, 3.77426842926114 ], [ -74.432853255289132, 3.774244329261489 ], [ -74.432668155288908, 3.77422022926196 ], [ -74.432576955288411, 3.774434429260956 ], [ -74.432606455288152, 3.774608329259955 ], [ -74.432646655287868, 3.774822429258711 ], [ -74.432601055287407, 3.775052629257538 ], [ -74.43250455528684, 3.775304229256338 ], [ -74.432665455286511, 3.775649429254161 ], [ -74.432689655286509, 3.775665529254027 ], [ -74.432740555286514, 3.775697629253762 ], [ -74.432855855286533, 3.77580202925298 ], [ -74.432925655286297, 3.776002729251757 ], [ -74.432963155286046, 3.776184729250695 ], [ -74.43330655528635, 3.776307829249397 ], [ -74.433625655286392, 3.77657012924738 ], [ -74.43301685528516, 3.776765529247424 ], [ -74.433024855284884, 3.776928829246518 ], [ -74.433148255284763, 3.777118829245254 ], [ -74.433239855284469, 3.777363429243752 ], [ -74.433205555284246, 3.77747772924319 ], [ -74.433235655283937, 3.777686129241998 ], [ -74.433290055283734, 3.77784712924102 ], [ -74.433223355283261, 3.778071629239912 ], [ -74.433135255282892, 3.778220229239262 ], [ -74.432999355282419, 3.778374529238669 ], [ -74.432916255282194, 3.77844222923845 ], [ -74.432944455282026, 3.778556029237775 ], [ -74.433002055282017, 3.778625629237295 ], [ -74.4329846552818, 3.778724629236783 ], [ -74.433134855281779, 3.778882529235648 ], [ -74.433118755281541, 3.779002929235018 ], [ -74.433120055281407, 3.779087329234557 ], [ -74.433082555281231, 3.779160929234223 ], [ -74.433004755281104, 3.779162229234359 ], [ -74.432960555281014, 3.779171629234386 ], [ -74.432794255280598, 3.77927592923412 ], [ -74.432692255280315, 3.779357629233859 ], [ -74.432657455280065, 3.779471329233302 ], [ -74.432658755279576, 3.779755029231749 ], [ -74.432658126953001, 3.779759811110373 ] ], [ [ -74.432552043402339, 3.780413553042806 ], [ -74.432501855277962, 3.780582029227519 ], [ -74.432538055277448, 3.780921929225595 ], [ -74.432629255277064, 3.78122432922378 ], [ -74.432647455276452, 3.781603629221673 ], [ -74.432621255276317, 3.781674029221338 ], [ -74.432359655275775, 3.781754329221376 ], [ -74.432281955275613, 3.78178102922137 ], [ -74.432083455275105, 3.78191352922101 ], [ -74.432009655274513, 3.782199929219583 ], [ -74.432055255274335, 3.782341729218722 ], [ -74.432142455274132, 3.78254382921746 ], [ -74.432202755273778, 3.782799429215956 ], [ -74.432146455273397, 3.782978729215079 ], [ -74.432020355273039, 3.783087129214715 ], [ -74.431894355272789, 3.783117929214778 ], [ -74.431820555272679, 3.78312592921487 ], [ -74.431758855272463, 3.783202229214563 ], [ -74.431592555271976, 3.78333332921415 ], [ -74.431462455271486, 3.783514029213399 ], [ -74.431615355271362, 3.783714729212027 ], [ -74.43165895527126, 3.783815729211396 ], [ -74.431625455270989, 3.783958229210677 ], [ -74.431601255270721, 3.784092729209987 ], [ -74.43141155527033, 3.784156329209985 ], [ -74.43122245527006, 3.784146329210384 ], [ -74.431075555269786, 3.784179029210473 ], [ -74.431001155269328, 3.784383129209496 ], [ -74.430924755268975, 3.784521629208877 ], [ -74.430770455268615, 3.784597229208746 ], [ -74.430625173664012, 3.784585909471634 ] ], [ [ -74.425797237031773, 3.785620807697475 ], [ -74.42567165525918, 3.785670929212179 ], [ -74.42534565525871, 3.785659129212838 ], [ -74.425359659714744, 3.785463589077375 ] ], [ [ -74.388854573687354, 3.84764812014763 ], [ -74.388816121561717, 3.847817977461076 ], [ -74.388741010967195, 3.848048975369162 ], [ -74.388732799136548, 3.848316176450138 ], [ -74.388708526118137, 3.848528878288962 ] ], [ [ -74.389349391299419, 3.850416957415031 ], [ -74.389368404190108, 3.850546416805661 ], [ -74.389236490877053, 3.850832112482697 ], [ -74.388822782718179, 3.850966494801962 ], [ -74.388780457458438, 3.851533995991242 ], [ -74.388625835840969, 3.852005191662615 ], [ -74.388512023146077, 3.852279088081612 ], [ -74.388383814621122, 3.852456683338676 ], [ -74.388165206468742, 3.852614774467867 ], [ -74.38775940188502, 3.852669056705683 ], [ -74.387380597702588, 3.85271754011345 ], [ -74.387082381450199, 3.853049528642499 ], [ -74.386928768549311, 3.853323223290019 ], [ -74.386833954739444, 3.853624720704458 ], [ -74.386780041736884, 3.85391291986678 ], [ -74.386775127397655, 3.854237421405949 ], [ -74.386706215011174, 3.854509819815403 ], [ -74.386608706466504, 3.85469161646176 ], [ -74.386417695966244, 3.854906309126157 ], [ -74.386112487359426, 3.855064096401271 ], [ -74.385971577389654, 3.855272891262992 ], [ -74.385662665613538, 3.855502078760352 ], [ -74.385679650828152, 3.855839381343765 ], [ -74.385924238285568, 3.856153693929224 ], [ -74.386514429464839, 3.856425921663146 ], [ -74.387010219005546, 3.856723745335285 ], [ -74.387169404701282, 3.857067554280357 ], [ -74.387038084961603, 3.857499050775624 ], [ -74.386661179064191, 3.857586634481295 ], [ -74.386532486868674, 3.857393927711479 ], [ -74.386167680180776, 3.857500912060517 ], [ -74.386249461551344, 3.857933318042197 ], [ -74.386187243842926, 3.858327217408632 ], [ -74.386046423853585, 3.858763213506279 ], [ -74.385912006633319, 3.859137209552934 ], [ -74.385816092633178, 3.859442906942545 ], [ -74.385694276204319, 3.85980050346115 ], [ -74.385544062634438, 3.860089798346294 ], [ -74.385360152335934, 3.860300791307954 ], [ -74.385174642632961, 3.860498084124267 ], [ -74.384998130275036, 3.860756677673239 ], [ -74.384852319145722, 3.860991172457512 ], [ -74.384665492200426, 3.861579267334189 ], [ -74.384579576393392, 3.86192716539817 ], [ -74.384735169206991, 3.862109173306972 ], [ -74.384938973138787, 3.862044982025727 ], [ -74.385051677288658, 3.86196468660436 ], [ -74.385330687055344, 3.861777398001543 ], [ -74.385679286106054, 3.861841613858038 ], [ -74.386368878168426, 3.862106045969569 ], [ -74.386621945347628, 3.862881261429691 ], [ -74.386516931537358, 3.863181558385788 ], [ -74.386422325024569, 3.863317654914847 ], [ -74.386187811917594, 3.863586145937764 ], [ -74.38597429493727, 3.863945038384924 ], [ -74.38597608191543, 3.864240540066465 ], [ -74.386045165627621, 3.864618345187959 ], [ -74.385980953449064, 3.864886643786104 ], [ -74.385628138600822, 3.865180129682453 ], [ -74.385402430317271, 3.865340320510474 ], [ -74.385255620545863, 3.865543915083683 ], [ -74.385018175125126, 3.866544809948858 ], [ -74.38473123913468, 3.867325801420596 ], [ -74.383996510366472, 3.868285908756829 ], [ -74.383231910367925, 3.868735408757973 ], [ -74.382248210372907, 3.868250708762108 ], [ -74.381807810374028, 3.868413408763012 ], [ -74.38161831037398, 3.868652008762977 ], [ -74.382221210368314, 3.869851008758185 ], [ -74.382121610367975, 3.870094608757871 ], [ -74.381982210368022, 3.870246208757905 ], [ -74.381704910368214, 3.870523508758039 ], [ -74.381503310368416, 3.870703908758183 ], [ -74.381485310367893, 3.870904208757736 ], [ -74.381327110367877, 3.871104608757705 ], [ -74.381371310366873, 3.871392108756856 ], [ -74.381349410366539, 3.871542508756542 ], [ -74.381207410366542, 3.871706408756557 ], [ -74.38111661036649, 3.871841308756487 ], [ -74.380915910366809, 3.871979808756739 ], [ -74.38080891036681, 3.872111308756727 ], [ -74.380680510366972, 3.872205308756873 ], [ -74.380625610366963, 3.872285208756834 ], [ -74.380417610367502, 3.872352408757285 ], [ -74.380302510367613, 3.872460408757356 ], [ -74.38020251036771, 3.872548108757435 ], [ -74.37993641036833, 3.872667908757925 ], [ -74.379793410368393, 3.872820308757968 ], [ -74.379805010367974, 3.872952308757605 ], [ -74.379737510367988, 3.873032408757604 ], [ -74.379588410368186, 3.87314640875776 ], [ -74.379443010368348, 3.873263208757901 ], [ -74.379374010368281, 3.873373408757832 ], [ -74.379057510368838, 3.873574608758269 ], [ -74.378907710369248, 3.873620908758597 ], [ -74.37870101036988, 3.873663108759106 ], [ -74.378479710370556, 3.873701108759665 ], [ -74.37827011037075, 3.873888808759822 ], [ -74.378160710370722, 3.874033008759786 ], [ -74.378096710370571, 3.874167508759637 ], [ -74.378101210370019, 3.874354808759156 ], [ -74.3780448103699, 3.874456108759071 ], [ -74.377970410369883, 3.874557108759038 ], [ -74.377963610369747, 3.874615208758913 ], [ -74.377917010369487, 3.874759008758695 ], [ -74.377808910369538, 3.874875608758721 ], [ -74.377687310369865, 3.874918408758977 ], [ -74.377468510370662, 3.87491350875964 ], [ -74.377136610371949, 3.874882608760704 ], [ -74.377001010372283, 3.874933808760979 ], [ -74.376951010371911, 3.875128108760641 ], [ -74.376988210371152, 3.87533880876 ], [ -74.37696051037031, 3.875658408759286 ], [ -74.376986710369636, 3.875861508758698 ], [ -74.376941510369207, 3.876058908758338 ], [ -74.376917210368973, 3.876169008758136 ], [ -74.376929210368644, 3.876272008757843 ], [ -74.376886810368575, 3.876340208757798 ], [ -74.376822910368446, 3.876468208757666 ], [ -74.376721310368552, 3.87655490875775 ], [ -74.376481110368772, 3.876778708757905 ], [ -74.376223410369718, 3.876767408758699 ], [ -74.375869610370884, 3.876810908759642 ], [ -74.375605110372234, 3.876673108760774 ], [ -74.375424410373384, 3.876500408761741 ], [ -74.375118610374514, 3.87649510876266 ], [ -74.374710910375697, 3.876586108763648 ], [ -74.374517810376176, 3.876666408764019 ], [ -74.374415810376206, 3.876778708764042 ], [ -74.374619710374731, 3.877030308762807 ], [ -74.374710910373423, 3.87736750876169 ], [ -74.374674810372923, 3.877580508761266 ], [ -74.374480210372624, 3.877929508760969 ], [ -74.374206610373037, 3.878122108761303 ], [ -74.373972510373278, 3.878330508761478 ], [ -74.373486710373854, 3.878736008761905 ], [ -74.373289310373664, 3.879042708761725 ], [ -74.373165910373515, 3.879246108761582 ], [ -74.373203510372605, 3.879508308760814 ], [ -74.373309510371598, 3.879726008759953 ], [ -74.373417510370786, 3.879869408759276 ], [ -74.373300010370428, 3.88013070875897 ], [ -74.373174210370451, 3.880281608758966 ], [ -74.373000210370563, 3.880461208759036 ], [ -74.372900510370457, 3.880618208758938 ], [ -74.372835410370499, 3.880684808758965 ], [ -74.372769410370395, 3.880797708758876 ], [ -74.372675710370302, 3.880947508758783 ], [ -74.372619810370153, 3.881067608758647 ], [ -74.372569010370071, 3.881155808758578 ], [ -74.372478610369967, 3.881308508758462 ], [ -74.372475210369331, 3.881528608757925 ], [ -74.372438610368732, 3.88177600875741 ], [ -74.37240571036844, 3.881925308757137 ], [ -74.372297710368088, 3.882175908756829 ], [ -74.372241810367797, 3.88233790875659 ], [ -74.372170810367692, 3.882465508756482 ], [ -74.372055610367468, 3.882683608756279 ], [ -74.37191181036718, 3.882964408756005 ], [ -74.371781310366885, 3.883221608755749 ], [ -74.37173071036635, 3.883465908755287 ], [ -74.371574310366086, 3.88375330875503 ], [ -74.371505610365816, 3.883929208754796 ], [ -74.371538810365323, 3.884056708754378 ], [ -74.371610610364201, 3.884350308753429 ], [ -74.371670710363134, 3.884648608752503 ], [ -74.371704110361691, 3.885093308751294 ], [ -74.371712210360371, 3.885540208750152 ], [ -74.371659410359612, 3.885860608749507 ], [ -74.371492210359591, 3.886072708749474 ], [ -74.371277710359763, 3.8862761087496 ], [ -74.37102661036019, 3.886443208749929 ], [ -74.370877810360113, 3.886653208749846 ], [ -74.370657810360527, 3.886780208750181 ], [ -74.370494410361218, 3.886749708750745 ], [ -74.37042201036212, 3.8865330087515 ], [ -74.370341610362587, 3.886474108751889 ], [ -74.370135010363214, 3.88650620875242 ], [ -74.370033110363295, 3.886610608752462 ], [ -74.370092110362634, 3.886757808751919 ], [ -74.370159210361777, 3.886971808751184 ], [ -74.370252910360492, 3.887297308750092 ], [ -74.370279510359481, 3.887604808749245 ], [ -74.370277310358773, 3.887852808748629 ], [ -74.370251610358238, 3.888074808748148 ], [ -74.370231310357582, 3.888315408747607 ], [ -74.370200110357018, 3.888546508747122 ], [ -74.370085010356959, 3.88871290874705 ], [ -74.369928910357018, 3.888884708747083 ], [ -74.369747510357243, 3.889033108747249 ], [ -74.369538010357587, 3.889174508747519 ], [ -74.369366610357574, 3.889391108747486 ], [ -74.369324110357056, 3.889617108747046 ], [ -74.369257110356571, 3.889866708746622 ], [ -74.369136210356245, 3.890126108746332 ], [ -74.369103110355766, 3.890334308745908 ], [ -74.369026110355378, 3.890559008745574 ], [ -74.36896891035525, 3.89067260874546 ], [ -74.368914310354967, 3.890842308745198 ], [ -74.368860910354641, 3.891019108744916 ], [ -74.368787710354454, 3.891172608744748 ], [ -74.368687710354322, 3.891336808744633 ], [ -74.368579510353925, 3.891608908744276 ], [ -74.368602010353257, 3.891805108743717 ], [ -74.368716010352003, 3.892093708742657 ], [ -74.368849710350261, 3.892530508741166 ], [ -74.368785310349978, 3.89270870874091 ], [ -74.368562810350113, 3.892936908741004 ], [ -74.368061710350929, 3.893271208741653 ], [ -74.367943710350858, 3.893445208741569 ], [ -74.367926510349989, 3.893758908740835 ], [ -74.367938610349142, 3.8940393087401 ], [ -74.367986210347425, 3.894565808738641 ], [ -74.367974610346621, 3.894856308737947 ], [ -74.367929210346418, 3.894984308737762 ], [ -74.367580910347073, 3.895183508738297 ], [ -74.367168510347199, 3.895652908738347 ], [ -74.366730510346841, 3.896315408737991 ], [ -74.366642810346391, 3.896576108737602 ], [ -74.366691410345425, 3.896842808736789 ], [ -74.366693810344543, 3.897143408736028 ], [ -74.366632110344156, 3.897354808735685 ], [ -74.366425510344129, 3.897625108735622 ], [ -74.366229710344015, 3.897903408735508 ], [ -74.365918610344522, 3.898109408735917 ], [ -74.365414310346168, 3.898171008737259 ], [ -74.365081810347206, 3.898224508738116 ], [ -74.364885910347567, 3.898341208738406 ], [ -74.364757210347406, 3.898559908738239 ], [ -74.364617310347214, 3.89879840873806 ], [ -74.364591410346634, 3.899025708737568 ], [ -74.364786710345214, 3.899268108736384 ], [ -74.364839010344056, 3.899600508735395 ], [ -74.364553410343689, 3.900081708735039 ], [ -74.364201710343849, 3.900459408735139 ], [ -74.363735310343998, 3.9009888087352 ], [ -74.36351001034383, 3.901320608735039 ], [ -74.363429510343579, 3.901505308734817 ], [ -74.363407210343055, 3.901709308734373 ], [ -74.363512710341794, 3.90200840873331 ], [ -74.363588610340642, 3.902319408732306 ], [ -74.363534110339913, 3.902629208731694 ], [ -74.36343761033973, 3.902811208731525 ], [ -74.363296110339817, 3.902952208731593 ], [ -74.36314251034004, 3.903073408731745 ], [ -74.36305671033989, 3.903223308731628 ], [ -74.363022810339572, 3.903376008731342 ], [ -74.362945510339117, 3.903632208730931 ], [ -74.36284211033923, 3.903721008731016 ], [ -74.362721310339211, 3.903876108730989 ], [ -74.362581910339017, 3.904111708730816 ], [ -74.36254171033859, 3.904307008730445 ], [ -74.362632910337624, 3.904526508729625 ], [ -74.362750910335649, 3.905053608727956 ], [ -74.362968210334031, 3.905340008726591 ], [ -74.363016510333082, 3.905607608725779 ], [ -74.362981610332596, 3.905813608725369 ], [ -74.362925310332457, 3.905934008725234 ], [ -74.362852810332598, 3.905976908725343 ], [ -74.362745510333085, 3.905942108725748 ], [ -74.362657010333123, 3.906038408725769 ], [ -74.362743410332016, 3.906313508724822 ], [ -74.362986910330562, 3.906509408723613 ], [ -74.363271310328898, 3.906726108722225 ], [ -74.363448310327797, 3.906884008721302 ], [ -74.363510010327118, 3.907044608720718 ], [ -74.363544810326445, 3.907231908720145 ], [ -74.36354221032596, 3.907397808719741 ], [ -74.363351710326199, 3.90754760871993 ], [ -74.36317471032649, 3.907668108720154 ], [ -74.362826010327666, 3.907694808721124 ], [ -74.362442510329331, 3.907606508722485 ], [ -74.36220111032992, 3.907692208722987 ], [ -74.361928510330671, 3.90777820872358 ], [ -74.361675310331123, 3.907935708723938 ], [ -74.361427010331568, 3.908090008724289 ], [ -74.361184510331768, 3.908313008724454 ], [ -74.361061110331306, 3.908631408724023 ], [ -74.360967210330656, 3.908968608723463 ], [ -74.360975510329794, 3.909247508722737 ], [ -74.36094851032901, 3.909557308722043 ], [ -74.360841110328593, 3.909830508721679 ], [ -74.360677610328622, 3.91002020872169 ], [ -74.360516610328474, 3.910263808721561 ], [ -74.360409310328151, 3.91050990872126 ], [ -74.36044481032684, 3.91091590872014 ], [ -74.360573010325922, 3.911071908719369 ], [ -74.360623910325174, 3.91126720871873 ], [ -74.360460310325109, 3.911489308718658 ], [ -74.360261810325227, 3.911698108718728 ], [ -74.360112810325205, 3.911887408718694 ], [ -74.360009710324434, 3.912281408718018 ], [ -74.359821510324394, 3.912527008717963 ], [ -74.359537610324367, 3.912883508717912 ], [ -74.359234010324087, 3.913356108717633 ], [ -74.359167510323203, 3.91373980871687 ], [ -74.359135310322287, 3.914093108716082 ], [ -74.359115410321266, 3.914464008715216 ], [ -74.359480810317848, 3.915185708712322 ], [ -74.359894410315405, 3.915511308710276 ], [ -74.360077210313449, 3.915962708708606 ], [ -74.360305510311335, 3.916391508706857 ], [ -74.360554210308862, 3.916940308704743 ], [ -74.36050051030719, 3.917577108703309 ], [ -74.360446910306109, 3.91801600870237 ], [ -74.360049910306529, 3.91836390870268 ], [ -74.359481310307785, 3.918626108703714 ], [ -74.359336510307813, 3.918797408703716 ], [ -74.359271110307503, 3.918983608703445 ], [ -74.35931501030646, 3.919284408702562 ], [ -74.35950061030465, 3.919679108701021 ], [ -74.359336510304118, 3.920060408700554 ], [ -74.359025310304403, 3.920354808700743 ], [ -74.35889661030393, 3.920665208700352 ], [ -74.358761710303725, 3.92090890870014 ], [ -74.358563910303488, 3.92122850869993 ], [ -74.358387010302977, 3.921623208699466 ], [ -74.358472810301905, 3.921885408698556 ], [ -74.358612310300643, 3.922147608697486 ], [ -74.358647010299592, 3.922468308696582 ], [ -74.358526410299248, 3.922736308696267 ], [ -74.358311910299378, 3.922950408696371 ], [ -74.358263610298991, 3.923148408696019 ], [ -74.358178310298186, 3.923525908695325 ], [ -74.358145610297299, 3.923865608694572 ], [ -74.358117310296379, 3.924217408693778 ], [ -74.358006110296174, 3.924422208693595 ], [ -74.357829110296436, 3.924561308693774 ], [ -74.357786110295663, 3.924871708693126 ], [ -74.357744310294734, 3.925242508692321 ], [ -74.357724210293512, 3.925681808691284 ], [ -74.357619810292832, 3.926043808690686 ], [ -74.357625210291843, 3.926375608689842 ], [ -74.35759301029114, 3.926659208689227 ], [ -74.357745410289994, 3.926859308688276 ], [ -74.357850510288671, 3.927189108687138 ], [ -74.357882910287486, 3.927550908686134 ], [ -74.357786110286682, 3.927949008685428 ], [ -74.357357010287458, 3.928211308686045 ], [ -74.357169210287708, 3.928355808686242 ], [ -74.356968610287709, 3.928601308686226 ], [ -74.356895710287247, 3.928848108685822 ], [ -74.356834510286717, 3.929105308685361 ], [ -74.356901010285682, 3.929378008684481 ], [ -74.357002810284513, 3.929652308683494 ], [ -74.357259010282547, 3.930007508681841 ], [ -74.357271210281453, 3.930368008680907 ], [ -74.35703511028143, 3.930673108680843 ], [ -74.356697210282093, 3.93086040868138 ], [ -74.356615910281988, 3.930994308681286 ], [ -74.356745410280439, 3.931368808679965 ], [ -74.356938610278647, 3.93174880867844 ], [ -74.356815210278086, 3.932080608677978 ], [ -74.356638210278305, 3.932230508678127 ], [ -74.356462710278421, 3.93240600867821 ], [ -74.356591010277128, 3.932685008677131 ], [ -74.356610110275611, 3.93319010867581 ], [ -74.356589910274479, 3.93360590867483 ], [ -74.356621810273154, 3.934009208673728 ], [ -74.356445010272694, 3.934387208673307 ], [ -74.356305610272102, 3.934761908672783 ], [ -74.356192910271616, 3.935066908672354 ], [ -74.35600061027155, 3.935330108672267 ], [ -74.355812010271663, 3.93552180867235 ], [ -74.355556210271885, 3.935761608672508 ], [ -74.355463410271426, 3.936040908672086 ], [ -74.355465910270354, 3.936405908671167 ], [ -74.355334610269608, 3.936816908670528 ], [ -74.355010810269874, 3.937124008670721 ], [ -74.354905510269646, 3.937330708670517 ], [ -74.354947210267994, 3.937840908669116 ], [ -74.355044910266514, 3.938229808667852 ], [ -74.355066010265304, 3.938620608666815 ], [ -74.354985910264332, 3.939054008665968 ], [ -74.354836010263739, 3.939441808665442 ], [ -74.35471771026279, 3.939910308664623 ], [ -74.354557510261998, 3.940376808663933 ], [ -74.354551410260825, 3.940787908662922 ], [ -74.354574110259819, 3.94110150866207 ], [ -74.354590710257696, 3.941808908660251 ], [ -74.354521410256268, 3.942381008659026 ], [ -74.354492410254863, 3.942896508657821 ], [ -74.354613110253339, 3.943272608656522 ], [ -74.354556810252674, 3.943570808655944 ], [ -74.354211210253467, 3.943729208656576 ], [ -74.354090110252912, 3.9440632086561 ], [ -74.354218810251496, 3.944389608654899 ], [ -74.354615810248859, 3.944801708652689 ], [ -74.3548072102475, 3.945029708651551 ], [ -74.355071710245838, 3.945272708650157 ], [ -74.355403210243736, 3.945590108648377 ], [ -74.355881810240689, 3.946043308645823 ], [ -74.356155410238756, 3.946369808644191 ], [ -74.356369910237191, 3.946637408642885 ], [ -74.356343110236679, 3.946846108642443 ], [ -74.356187510236651, 3.947049408642396 ], [ -74.356005210236802, 3.94722070864251 ], [ -74.355870410236747, 3.947406208642448 ], [ -74.355790510236076, 3.947727508641881 ], [ -74.355742310235115, 3.948119808641043 ], [ -74.355710510234516, 3.948362808640529 ], [ -74.35594611023221, 3.948869008638562 ], [ -74.356065110230773, 3.94920470863737 ], [ -74.356248110228961, 3.949605908635824 ], [ -74.356386010227141, 3.950057108634286 ], [ -74.356380710226063, 3.950431708633364 ], [ -74.356155410226094, 3.950699308633364 ], [ -74.355865710226382, 3.95095620863358 ], [ -74.355522410226996, 3.951170208634065 ], [ -74.355224110227311, 3.951428608634305 ], [ -74.354967110227307, 3.951750708634263 ], [ -74.354962310225503, 3.952375608632717 ], [ -74.355231610223868, 3.952599808631355 ], [ -74.355747710221053, 3.952925608629005 ], [ -74.356232010217653, 3.953496508626138 ], [ -74.35623411021561, 3.954186808624406 ], [ -74.356261110213808, 3.954770008622868 ], [ -74.356164810212775, 3.955244208621969 ], [ -74.356072710211535, 3.955787208620885 ], [ -74.356027810209923, 3.956390408619507 ], [ -74.356062710208192, 3.956939508618031 ], [ -74.356168510206359, 3.957436408616475 ], [ -74.35623481020464, 3.957943308615007 ], [ -74.356423410202041, 3.958602708612799 ], [ -74.356616710199106, 3.959369008610309 ], [ -74.356702510197124, 3.959936208608635 ], [ -74.356820610195243, 3.960439308607026 ], [ -74.356820610193893, 3.960899508605875 ], [ -74.356898110192503, 3.961282308604687 ], [ -74.356831310191765, 3.961616608604048 ], [ -74.356541610192551, 3.961702308604696 ], [ -74.356251910194558, 3.961370508606387 ], [ -74.355822810196671, 3.961177808608144 ], [ -74.355608210196223, 3.961595208607737 ], [ -74.355618910194906, 3.96203410860661 ], [ -74.35581201019302, 3.962440808605014 ], [ -74.355907610191792, 3.962741208603982 ], [ -74.35587641019049, 3.963232808602845 ], [ -74.355860210189448, 3.963605608601959 ], [ -74.355678910189468, 3.963830208601936 ], [ -74.355602410188737, 3.964162508601334 ], [ -74.355842910187249, 3.964380908600072 ], [ -74.356006510186248, 3.964525408599227 ], [ -74.356190010184932, 3.96474880859812 ], [ -74.356447410183137, 3.965034808596641 ], [ -74.356612710181636, 3.965357208595343 ], [ -74.35645581018143, 3.965619608595153 ], [ -74.356434310179537, 3.96629390859353 ], [ -74.356402110178465, 3.96670060859261 ], [ -74.356211910178416, 3.966951208592548 ], [ -74.356327010177068, 3.967263608591424 ], [ -74.356348610175573, 3.967749708590145 ], [ -74.356350110174233, 3.968209908588988 ], [ -74.356385310173309, 3.968487308588193 ], [ -74.356379210172307, 3.968840708587324 ], [ -74.356332710171756, 3.969077408586872 ], [ -74.356406210170761, 3.969327708586028 ], [ -74.356406510170103, 3.969560408585444 ], [ -74.356237410170067, 3.969776208585404 ], [ -74.355866610171148, 3.969858108586303 ], [ -74.355744810171203, 3.969988408586338 ], [ -74.355675561645995, 3.970116139328542 ] ], [ [ -74.355927547744713, 3.970574350388382 ], [ -74.355936110168784, 3.970582308584284 ], [ -74.356143910167219, 3.970867908582955 ], [ -74.356271210166327, 3.971017508582202 ], [ -74.356468210165133, 3.971181308581206 ], [ -74.356733410163628, 3.971364908579958 ], [ -74.356950210162651, 3.971435308579139 ], [ -74.357252410161337, 3.971512208578051 ], [ -74.357642410159499, 3.971657408576527 ], [ -74.357831910158168, 3.971882508575403 ], [ -74.357997210156597, 3.972216008574077 ], [ -74.358042010155714, 3.972465008573321 ], [ -74.358170010154439, 3.972747208572236 ], [ -74.358531310152841, 3.972837808570934 ], [ -74.358933010150793, 3.973047208569218 ], [ -74.359106610149368, 3.973321908568015 ], [ -74.359105910148585, 3.973597508567329 ], [ -74.359090410147502, 3.973979308566421 ], [ -74.359265310145858, 3.974330008565022 ], [ -74.359415810144526, 3.97459580856391 ], [ -74.359531110143493, 3.974808908563034 ], [ -74.359879410141474, 3.975076208561334 ], [ -74.360246210139422, 3.975322608559625 ], [ -74.360631510137239, 3.97559110855781 ], [ -74.360938410135503, 3.97580670855636 ], [ -74.361181810133829, 3.976080708554952 ], [ -74.361325710132618, 3.976323008553919 ], [ -74.361648810130518, 3.976640408552164 ], [ -74.361836210128573, 3.977072608550527 ], [ -74.362063410126737, 3.977425908548969 ], [ -74.362157610124669, 3.978015608547213 ], [ -74.362378210121904, 3.978693208544865 ], [ -74.36254649377986, 3.978928762987058 ] ], [ [ -74.371028866746528, 3.984190004313537 ], [ -74.371105610074295, 3.984234708505082 ], [ -74.371486110072325, 3.984433808503457 ], [ -74.371825410070983, 3.984480308502332 ], [ -74.37234891006878, 3.984588308500508 ], [ -74.372659510067493, 3.984640008499455 ], [ -74.37304701006569, 3.984785208497942 ], [ -74.37340411006366, 3.985034708496254 ], [ -74.373580510061799, 3.985452608494687 ], [ -74.373833810060589, 3.985557508493675 ], [ -74.374362210058919, 3.985473708492314 ], [ -74.374463210058025, 3.985654308491561 ] ] ] } }
]
}
